STARLINK-36037          
1 66613U 25270AB  26007.78301559  .00036269  00000+0  87153-3 0  9993
2 66613  43.0026  42.5148 0001338 253.9423 106.1287 15.40694602  8365
STARLINK-36040          
1 66614U 25270AC  26006.53109824  .00045337  00000+0  10873-2 0  9997
2 66614  43.0000  49.4550 0001085 280.7633  79.3102 15.40668461  8014
STARLINK-35988          
1 66615U 25270AD  26007.77630127  .00057699  00000+0  13769-2 0  9991
2 66615  43.0018  42.4642 0002854 268.8543  91.1987 15.40724365  8201
STARLINK-35391          
1 66616U 25270AE  26007.17490511  .00061007  00000+0  14544-2 0  9997
2 66616  43.0019  45.6857 0001566 254.3638 105.7046 15.40733968  8386
STARLINK-35940          
1 66617U 25271A   26007.54612594  .00030486  00000+0  76870-3 0  9995
2 66617  53.1603  65.4902 0001139  57.6377 302.4738 15.39634805  8189
STARLINK-35970          
1 66618U 25271B   26007.16085857  .00056247  00000+0  14047-2 0  9990
2 66618  53.1594  66.6290 0001467  79.3211 280.7959 15.39643131  8134
STARLINK-35951          
1 66619U 25271C   26007.17976747  .00047089  00000+0  11793-2 0  9998
2 66619  53.1605  66.7529 0001023  19.0975 341.0068 15.39636193  8132
STARLINK-35936          
1 66620U 25271D   26007.18902754  .00042991  00000+0  10758-2 0  9995
2 66620  53.1593  66.8102 0001097  60.0889 300.0225 15.39703471  8133
STARLINK-35847          
1 66621U 25271E   26007.15621356  .00054918  00000+0  13719-2 0  9991
2 66621  53.1595  66.5987 0001007 101.4966 258.6152 15.39646347  8136
STARLINK-35950          
1 66622U 25271F   26007.85211173  .00063855  00000+0  15883-2 0  9995
2 66622  53.1584  63.8420 0000660 135.2025 224.9034 15.39709596  8234
STARLINK-35920          
1 66623U 25271G   26007.27718174  .00044696  00000+0  11197-2 0  9991
2 66623  53.1603  66.6522 0001356  67.9457 292.1692 15.39650426  8148
STARLINK-35927          
1 66624U 25271H   26007.56460676  .00051022  00000+0  12757-2 0  9999
2 66624  53.1576  64.8892 0001225 111.1841 248.9295 15.39651612  8193
STARLINK-35929          
1 66625U 25271J   26007.84283813  .00035626  00000+0  89605-3 0  9996
2 66625  53.1591  63.7825 0001218 109.7470 250.3666 15.39634479  8234
STARLINK-35902          
1 66626U 25271K   26007.53219543  .00029880  00000+0  75339-3 0  9996
2 66626  53.1573  65.3953 0000736  75.7097 284.3989 15.39646929  8188
STARLINK-35904          
1 66627U 25271L   26007.84747843  .00033072  00000+0  83230-3 0  9997
2 66627  53.1581  63.8101 0000663  58.8891 301.2179 15.39653075  8190
STARLINK-35862          
1 66628U 25271M   26007.56427496  .00036823  00000+0  92500-3 0  9993
2 66628  53.1581  64.8851 0001160 108.7272 251.3859 15.39657059  8191
STARLINK-35949          
1 66630U 25271P   26007.55996134  .00031073  00000+0  78327-3 0  9998
2 66630  53.1584  64.8552 0001075  89.1950 270.9178 15.39634728  8194
STARLINK-35965          
1 66631U 25271Q   26007.17014554  .00052878  00000+0  13215-2 0  9994
2 66631  53.1594  66.6917 0001581  95.2240 264.8945 15.39648480  8131
STARLINK-35973          
1 66632U 25271R   26007.15199742  .00053798  00000+0  13442-2 0  9990
2 66632  53.1606  67.2914 0001380  99.9758 260.1403 15.39649094  8086
STARLINK-35948          
1 66633U 25271S   26007.15166940  .00043159  00000+0  10823-2 0  9995
2 66633  53.1620  67.2887 0001125 104.1384 255.9746 15.39634787  8123
STARLINK-35967          
1 66634U 25271T   26007.53652399  .00025538  00000+0  64679-3 0  9996
2 66634  53.1603  65.4237 0001377 116.2354 243.8792 15.39596793  8147
STARLINK-35955          
1 66635U 25271U   26006.42367420  .00056978  00000+0  14264-2 0  9998
2 66635  53.1600  70.5666 0001584  67.8847 292.2326 15.39564905  8013
STARLINK-35968          
1 66636U 25271V   26007.53186656  .00041429  00000+0  10397-2 0  9990
2 66636  53.1594  65.3977 0001350  70.1803 289.9347 15.39631576  8186
STARLINK-35953          
1 66637U 25271W   26007.84714883  .00019189  00000+0  48828-3 0  9993
2 66637  53.1590  63.8062 0001303  90.9424 269.1730 15.39632698  8236
STARLINK-35972          
1 66638U 25271X   26007.31855099  .00035191  00000+0  88520-3 0  9995
2 66638  53.1574  66.1945 0000865 110.3553 249.7545 15.39637414  8157
STARLINK-35908          
1 66639U 25271Y   26007.57356227  .00038915  00000+0  97668-3 0  9993
2 66639  53.1592  64.9409 0001341 111.0384 249.0764 15.39657513  8191
STARLINK-35921          
1 66640U 25271Z   26007.84250630  .00024659  00000+0  62383-3 0  9992
2 66640  53.1593  63.7740 0001872  92.5724 267.5495 15.39650142  8231
STARLINK-35923          
1 66641U 25271AA  26007.55067400  .00041173  00000+0  10323-2 0  9998
2 66641  53.1594  64.7955 0001269  92.1243 267.9907 15.39663178  8194
STARLINK-35926          
1 66642U 25271AB  26007.61990101  .00031772  00000+0  80049-3 0  9996
2 66642  53.1602  64.5174 0001257  78.4583 281.6563 15.39638009  8160
STARLINK-35918          
1 66643U 25271AC  26007.30925845  .00015241  00000+0  39034-3 0  9997
2 66643  53.1586  66.1345 0000777  78.1349 281.9743 15.39611717  8152
STARLINK-35938          
1 66644U 25271AD  26006.58160015 -.00000699  00000+0 -75013-5 0  9999
2 66644  53.1594  69.4161 0001329  67.5046 292.6100 15.39598914  8041
SHENZHOU-22             
1 66645U 25272A   26007.26300282  .00013052  00000+0  15877-3 0  9994
2 66645  41.4649 221.6308 0011070 236.8371 123.1406 15.60254777267497
COSMOS 2597 (RODNIK-S *)
1 66647U 25273A   26007.80799917  .00000038  00000+0  20594-3 0  9996
2 66647  82.4991 270.2523 0010997 203.8408 156.2164 12.42797544  5371
COSMOS 2598 (RODNIK-S *)
1 66648U 25273B   26007.78248640  .00000033  00000+0  16372-3 0  9990
2 66648  82.5031 270.2514 0010333 173.6190 186.5023 12.42913188  5378
COSMOS 2599 (RODNIK-S *)
1 66649U 25273C   26006.78910098  .00000041  00000+0  22708-3 0  9992
2 66649  82.5043 270.9489 0006524 213.6722 146.3943 12.41152975  5242
BEE-1000                
1 66650U 25274A   26007.77879728  .00002792  00000+0  28187-3 0  9991
2 66650  97.7415 299.4933 0012350 159.4865 200.6852 14.91816255  6287
2025-274B               
1 66651U 25274B   26007.77463946  .00003148  00000+0  31531-3 0  9996
2 66651  97.7411 299.4961 0012641 157.9976 202.1788 14.92036280  6282
2025-274C               
1 66652U 25274C   26007.77176370  .00002644  00000+0  26539-3 0  9991
2 66652  97.7417 299.5024 0012057 163.9845 196.1757 14.92095158  6280
2025-274D               
1 66653U 25274D   26007.77189860  .00002374  00000+0  23900-3 0  9999
2 66653  97.7416 299.5015 0013072 161.3181 198.8520 14.92061533  6280
JACK E                  
1 66654U 25274E   26007.76685163  .00002815  00000+0  28096-3 0  9997
2 66654  97.7416 299.5095 0013632 162.8150 197.3534 14.92256405  6286
CAS500-3                
1 66655U 25274F   26007.31297071 -.00000090  00000+0 -34975-5 0  9996
2 66655  97.7329 299.0051 0002732 309.8522  50.2456 14.91312436  6211
2025-274G               
1 66656U 25274G   26007.76142058  .00003285  00000+0  32521-3 0  9990
2 66656  97.7414 299.5154 0014258 164.1669 195.9998 14.92463306  6285
SPIRONE                 
1 66657U 25274H   26007.68933371  .00003350  00000+0  33021-3 0  9997
2 66657  97.7412 299.4547 0012086 179.8244 180.2982 14.92639617  6277
2025-274J               
1 66658U 25274J   26007.75113991  .00004883  00000+0  47581-3 0  9992
2 66658  97.7412 299.5276 0012582 182.2493 177.8672 14.92884159  6285
JACK K                  
1 66659U 25274K   26007.74638710  .00003187  00000+0  31166-3 0  9991
2 66659  97.7413 299.5350 0013263 185.0082 175.1007 14.92983820  6280
K-HERO                  
1 66660U 25274L   26007.74215279  .00002779  00000+0  27147-3 0  9994
2 66660  97.7417 299.5426 0013860 186.1053 174.0000 14.93131628  6286
SNUGLITE-III            
1 66661U 25274M   26007.80529366  .00002628  00000+0  25619-3 0  9992
2 66661  97.7413 299.6122 0014448 187.5118 172.5887 14.93253751  6296
2025-274N               
1 66662U 25274N   26007.73662728  .00002864  00000+0  27818-3 0  9990
2 66662  97.7413 299.5489 0014816 187.6301 172.4696 14.93323580  6280
SOYUZ-MS 28             
1 66664U 25275A   26007.53241977  .00008489  00000+0  16112-3 0  9994
2 66664  51.6331  14.7735 0007611 351.5197   8.5662 15.49154903546858
FORMOSAT-8A             
1 66666U 25276A   26007.76997847  .00008782  00000+0  69295-3 0  9992
2 66666  97.6557  84.3229 0005803 133.1417 227.0293 15.00943142  5992
PELICAN-5               
1 66667U 25276B   26007.77999513  .00004926  00000+0  24732-3 0  9999
2 66667  97.4380  84.1038 0003553 158.0813 202.0574 15.17744777  6073
TRANSPORTER-15C         
1 66668U 25276C   26007.72869856  .00020985  00000+0  10261-2 0  9995
2 66668  97.4246  83.9480 0007981 208.5010 151.5789 15.18215409  6063
TRANSPORTER-15D         
1 66669U 25276D   26007.79090794  .00021078  00000+0  10260-2 0  9993
2 66669  97.4261  84.0257 0007710 210.9100 149.1681 15.18374337  6073
HUNITY                  
1 66670U 25276E   26007.79259373  .00022329  00000+0  10903-2 0  9999
2 66670  97.4269  84.0285 0007442 210.1631 149.9176 15.18256081  6079
TRANSPORTER-15F         
1 66671U 25276F   26007.72845978  .00009958  00000+0  49785-3 0  9999
2 66671  97.4391  84.0220 0005875 189.5053 170.6071 15.17626836  6062
TRANSPORTER-15G         
1 66672U 25276G   26007.74017163 -.00004017  00000+0 -20133-3 0  9998
2 66672  97.4361  83.9920 0006880 193.6136 166.4913 15.16786143  6065
TRANSPORTER-15H         
1 66673U 25276H   26007.72837498  .00012831  00000+0  63720-3 0  9998
2 66673  97.4336  83.9923 0007606 207.4709 152.6124 15.17786195  6067
TRANSPORTER-15J         
1 66674U 25276J   26007.73711339  .00008033  00000+0  41045-3 0  9990
2 66674  97.4349  83.9858 0006101 191.5499 168.5595 15.16926760  6068
TRANSPORTER-15K         
1 66675U 25276K   26005.15794966  .04209032  00000+0  16124+0 0  9994
2 66675  97.4404  81.4789 0026406 231.3206 128.5668 15.21894661  5679
